CSS (TIANHE)            
1 48274U 21035A   24251.20492443  .00072493  00000+0  76007-3 0  9995
2 48274  41.4689 303.2032 0001501  34.2508 325.8428 15.63415886191922
